[
    {
        "Altitude(m)": 569581.6355765172,
        "Argument of Periapsis(deg)": 0.026491964442854003,
        "Eccentricity": 0.0,
        "Inclination(deg)": 53.0,
        "Latitude(deg)": -47.44427944308788,
        "Longitude(deg)": -42.89708706234178,
        "Mean Anomaly(deg)": -66.90632852968966,
        "RAAN(deg)": 114.96057347411205,
        "Satellite Name": "Starlink Shell 1 521",
        "Satellite Number": 521,
        "Semi-Major Axis(m)": 6931778.249405717,
        "Time(s)": 760
    },
    {
        "Altitude(m)": 569463.2180359707,
        "Argument of Periapsis(deg)": 0.02684054292236524,
        "Eccentricity": 0.0,
        "Inclination(deg)": 53.0,
        "Latitude(deg)": -47.15273418066545,
        "Longitude(deg)": -42.12514329838583,
        "Mean Anomaly(deg)": -66.2794973261329,
        "RAAN(deg)": 114.96005470403459,
        "Satellite Name": "Starlink Shell 1 521",
        "Satellite Number": 521,
        "Semi-Major Axis(m)": 6931778.249405717,
        "Time(s)": 770
    },
    {
        "Altitude(m)": 569342.2653663955,
        "Argument of Periapsis(deg)": 0.027189121401876473,
        "Eccentricity": 0.0,
        "Inclination(deg)": 53.0,
        "Latitude(deg)": -46.85546101110042,
        "Longitude(deg)": -41.36211243302895,
        "Mean Anomaly(deg)": -65.65266612257626,
        "RAAN(deg)": 114.95953593395714,
        "Satellite Name": "Starlink Shell 1 521",
        "Satellite Number": 521,
        "Semi-Major Axis(m)": 6931778.249405717,
        "Time(s)": 780
    },
    {
        "Altitude(m)": 569218.8253937691,
        "Argument of Periapsis(deg)": 0.02753769988138771,
        "Eccentricity": 0.0,
        "Inclination(deg)": 53.0,
        "Latitude(deg)": -46.55257978856704,
        "Longitude(deg)": -40.60797220471853,
        "Mean Anomaly(deg)": -65.02583491901959,
        "RAAN(deg)": 114.95901716387964,
        "Satellite Name": "Starlink Shell 1 521",
        "Satellite Number": 521,
        "Semi-Major Axis(m)": 6931778.249405717,
        "Time(s)": 790
    },
    {
        "Altitude(m)": 569092.9469014828,
        "Argument of Periapsis(deg)": 0.02788627836089895,
        "Eccentricity": 0.0,
        "Inclination(deg)": 53.0,
        "Latitude(deg)": -46.24420933361444,
        "Longitude(deg)": -39.86269179688846,
        "Mean Anomaly(deg)": -64.39900371546278,
        "RAAN(deg)": 114.95849839380216,
        "Satellite Name": "Starlink Shell 1 521",
        "Satellite Number": 521,
        "Semi-Major Axis(m)": 6931778.249405717,
        "Time(s)": 800
    },
    {
        "Altitude(m)": 568964.6796089642,
        "Argument of Periapsis(deg)": 0.02823485684041019,
        "Eccentricity": 0.0,
        "Inclination(deg)": 53.0,
        "Latitude(deg)": -45.9304673220024,
        "Longitude(deg)": -39.12623187343688,
        "Mean Anomaly(deg)": -63.77217251190608,
        "RAAN(deg)": 114.95797962372471,
        "Satellite Name": "Starlink Shell 1 521",
        "Satellite Number": 521,
        "Semi-Major Axis(m)": 6931778.249405717,
        "Time(s)": 810
    },
    {
        "Altitude(m)": 568834.0741498983,
        "Argument of Periapsis(deg)": 0.028583435319921423,
        "Eccentricity": 0.0,
        "Inclination(deg)": 53.0,
        "Latitude(deg)": -45.61147018347207,
        "Longitude(deg)": -38.39854460627067,
        "Mean Anomaly(deg)": -63.1453413083494,
        "RAAN(deg)": 114.95746085364722,
        "Satellite Name": "Starlink Shell 1 521",
        "Satellite Number": 521,
        "Semi-Major Axis(m)": 6931778.249405717,
        "Time(s)": 820
    },
    {
        "Altitude(m)": 568701.1820500349,
        "Argument of Periapsis(deg)": 0.028932013799432665,
        "Eccentricity": 0.0,
        "Inclination(deg)": 53.0,
        "Latitude(deg)": -45.287333010124165,
        "Longitude(deg)": -37.67957520574459,
        "Mean Anomaly(deg)": -62.518510104792654,
        "RAAN(deg)": 114.95694208356976,
        "Satellite Name": "Starlink Shell 1 521",
        "Satellite Number": 521,
        "Semi-Major Axis(m)": 6931778.249405717,
        "Time(s)": 830
    },
    {
        "Altitude(m)": 568566.0557045602,
        "Argument of Periapsis(deg)": 0.029280592278943897,
        "Eccentricity": 0.0,
        "Inclination(deg)": 53.0,
        "Latitude(deg)": -44.95816947404142,
        "Longitude(deg)": -36.969261926460995,
        "Mean Anomaly(deg)": -61.891678901236006,
        "RAAN(deg)": 114.95642331349228,
        "Satellite Name": "Starlink Shell 1 521",
        "Satellite Number": 521,
        "Semi-Major Axis(m)": 6931778.249405717,
        "Time(s)": 840
    },
    {
        "Altitude(m)": 568428.7483551161,
        "Argument of Periapsis(deg)": 0.029629170758455132,
        "Eccentricity": 0.0,
        "Inclination(deg)": 53.0,
        "Latitude(deg)": -44.62409175377896,
        "Longitude(deg)": -36.267536059770755,
        "Mean Anomaly(deg)": -61.26484769767922,
        "RAAN(deg)": 114.9559045434148,
        "Satellite Name": "Starlink Shell 1 521",
        "Satellite Number": 521,
        "Semi-Major Axis(m)": 6931778.249405717,
        "Time(s)": 850
    },
    {
        "Altitude(m)": 568289.3140664003,
        "Argument of Periapsis(deg)": 0.02997774923796637,
        "Eccentricity": 0.0,
        "Inclination(deg)": 53.0,
        "Latitude(deg)": -44.28521046933008,
        "Longitude(deg)": -35.57432359265466,
        "Mean Anomaly(deg)": -60.63801649412252,
        "RAAN(deg)": 114.95538577333733,
        "Satellite Name": "Starlink Shell 1 521",
        "Satellite Number": 521,
        "Semi-Major Axis(m)": 6931778.249405717,
        "Time(s)": 860
    },
    {
        "Altitude(m)": 568147.807702409,
        "Argument of Periapsis(deg)": 0.030326327717477602,
        "Eccentricity": 0.0,
        "Inclination(deg)": 53.0,
        "Latitude(deg)": -43.94163462515489,
        "Longitude(deg)": -34.88954432948019,
        "Mean Anomaly(deg)": -60.01118529056582,
        "RAAN(deg)": 114.95486700325988,
        "Satellite Name": "Starlink Shell 1 521",
        "Satellite Number": 521,
        "Semi-Major Axis(m)": 6931778.249405717,
        "Time(s)": 870
    },
    {
        "Altitude(m)": 568004.2849022937,
        "Argument of Periapsis(deg)": 0.030674906196988847,
        "Eccentricity": 0.0,
        "Inclination(deg)": 53.0,
        "Latitude(deg)": -43.59347156086621,
        "Longitude(deg)": -34.21311351868784,
        "Mean Anomaly(deg)": -59.38435408700905,
        "RAAN(deg)": 114.95434823318237,
        "Satellite Name": "Starlink Shell 1 521",
        "Satellite Number": 521,
        "Semi-Major Axis(m)": 6931778.249405717,
        "Time(s)": 880
    },
    {
        "Altitude(m)": 567858.802055883,
        "Argument of Periapsis(deg)": 0.031023484676500086,
        "Eccentricity": 0.0,
        "Inclination(deg)": 53.0,
        "Latitude(deg)": -43.24082690914995,
        "Longitude(deg)": -33.54494178130273,
        "Mean Anomaly(deg)": -58.7575228834524,
        "RAAN(deg)": 114.95382946310492,
        "Satellite Name": "Starlink Shell 1 521",
        "Satellite Number": 521,
        "Semi-Major Axis(m)": 6931778.249405717,
        "Time(s)": 890
    },
    {
        "Altitude(m)": 567711.4162788535,
        "Argument of Periapsis(deg)": 0.03137206315601132,
        "Eccentricity": 0.0,
        "Inclination(deg)": 53.0,
        "Latitude(deg)": -42.88380456050538,
        "Longitude(deg)": -32.884935021746045,
        "Mean Anomaly(deg)": -58.13069167989565,
        "RAAN(deg)": 114.95331069302745,
        "Satellite Name": "Starlink Shell 1 521",
        "Satellite Number": 521,
        "Semi-Major Axis(m)": 6931778.249405717,
        "Time(s)": 900
    },
    {
        "Altitude(m)": 567562.1853875349,
        "Argument of Periapsis(deg)": 0.03172064163552255,
        "Eccentricity": 0.0,
        "Inclination(deg)": 53.0,
        "Latitude(deg)": -42.52250663439526,
        "Longitude(deg)": -32.23299583348876,
        "Mean Anomaly(deg)": -57.50386047633898,
        "RAAN(deg)": 114.95279192294997,
        "Satellite Name": "Starlink Shell 1 521",
        "Satellite Number": 521,
        "Semi-Major Axis(m)": 6931778.249405717,
        "Time(s)": 910
    },
    {
        "Altitude(m)": 567411.1678734408,
        "Argument of Periapsis(deg)": 0.0320692201150338,
        "Eccentricity": 0.0,
        "Inclination(deg)": 53.0,
        "Latitude(deg)": -42.15703345639234,
        "Longitude(deg)": -31.589023373600725,
        "Mean Anomaly(deg)": -56.87702927278221,
        "RAAN(deg)": 114.9522731528725,
        "Satellite Name": "Starlink Shell 1 521",
        "Satellite Number": 521,
        "Semi-Major Axis(m)": 6931778.249405717,
        "Time(s)": 920
    },
    {
        "Altitude(m)": 567258.4228774419,
        "Argument of Periapsis(deg)": 0.032417798594545036,
        "Eccentricity": 0.0,
        "Inclination(deg)": 53.0,
        "Latitude(deg)": -41.78748354092625,
        "Longitude(deg)": -30.952913219013865,
        "Mean Anomaly(deg)": -56.25019806922547,
        "RAAN(deg)": 114.95175438279504,
        "Satellite Name": "Starlink Shell 1 521",
        "Satellite Number": 521,
        "Semi-Major Axis(m)": 6931778.249405717,
        "Time(s)": 930
    },
    {
        "Altitude(m)": 567104.0101636559,
        "Argument of Periapsis(deg)": 0.03276637707405627,
        "Eccentricity": 0.0,
        "Inclination(deg)": 53.0,
        "Latitude(deg)": -41.41395357924164,
        "Longitude(deg)": -30.324558717424416,
        "Mean Anomaly(deg)": -55.623366865668785,
        "RAAN(deg)": 114.95123561271754,
        "Satellite Name": "Starlink Shell 1 521",
        "Satellite Number": 521,
        "Semi-Major Axis(m)": 6931778.249405717,
        "Time(s)": 940
    }
]